[{"OBJECT_NAME":"STARLINK-6039","OBJECT_ID":"2023-058C","EPOCH":"2026-03-09T22:08:43.166976","MEAN_MOTION":15.04936757,"ECCENTRICITY":0.000205,"INCLINATION":97.6035,"RA_OF_ASC_NODE":70.4131,"ARG_OF_PERICENTER":83.2541,"MEAN_ANOMALY":276.8918,"EPHEMERIS_TYPE":0,"CLASSIFICATION_TYPE":"U","NORAD_CAT_ID":56319,"ELEMENT_SET_NO":999,"REV_AT_EPOCH":15781,"BSTAR":0.00092995507,"MEAN_MOTION_DOT":0.00013129,"MEAN_MOTION_DDOT":0},{"OBJECT_NAME":"FREGAT DEB","OBJECT_ID":"2011-037BG","EPOCH":"2026-03-09T17:10:15.629088","MEAN_MOTION":12.84259063,"ECCENTRICITY":0.10581849,"INCLINATION":51.3382,"RA_OF_ASC_NODE":262.1676,"ARG_OF_PERICENTER":159.2696,"MEAN_ANOMALY":205.466,"EPHEMERIS_TYPE":0,"CLASSIFICATION_TYPE":"U","NORAD_CAT_ID":45822,"ELEMENT_SET_NO":999,"REV_AT_EPOCH":24990,"BSTAR":0.02543055,"MEAN_MOTION_DOT":0.0008485,"MEAN_MOTION_DDOT":0}]
